*******************************************************************************
Ephemeris / WWW_USER Mon Mar 26 22:14:55 2018 Pasadena, USA      / Horizons    
*******************************************************************************
Target body name: Titania (703)                   {source: ura111}
Center body name: Solar System Barycenter (0)     {source: DE431mx}
Center-site name: BODY CENTER
*******************************************************************************
Start time      : A.D. 2000-Jan-01 00:00:00.0000 TDB
Stop  time      : A.D. 2005-Jan-01 00:00:00.0000 TDB
Step-size       : 7200 minutes
*******************************************************************************
Center geodetic : 0.00000000,0.00000000,0.0000000 {E-lon(deg),Lat(deg),Alt(km)}
Center cylindric: 0.00000000,0.00000000,0.0000000 {E-lon(deg),Dxy(km),Dz(km)}
Center radii    : (undefined)                                                  
Output units    : AU-D                                                         
Output type     : GEOMETRIC cartesian states
Output format   : 2 (position and velocity)
Reference frame : ICRF/J2000.0                                                 
Coordinate systm: Ecliptic and Mean Equinox of Reference Epoch                 
*******************************************************************************
JDTDB
   X     Y     Z
   VX    VY    VZ
*******************************************************************************
$$SOE
2452594.500000000 = A.D. 2002-Nov-16 00:00:00.0000 TDB 
   1.692801248002989E+01 -1.067790858597553E+01 -2.563583456955599E-01
   3.909447784065923E-03  2.616531481271678E-03 -8.886479269405884E-04
2452599.500000000 = A.D. 2002-Nov-21 00:00:00.0000 TDB 
   1.693479509406979E+01 -1.066202613640098E+01 -2.608496548132923E-01
   8.392859795937816E-04  3.644717208269967E-03  1.620360641776362E-03
2452604.500000000 = A.D. 2002-Nov-26 00:00:00.0000 TDB 
   1.695021281296209E+01 -1.064707882245958E+01 -2.585467953408308E-01
   2.420149024108260E-03  2.781798321458375E-03 -2.058060036151882E-03
2452609.500000000 = A.D. 2002-Dec-01 00:00:00.0000 TDB 
   1.695498881262158E+01 -1.063009808152403E+01 -2.584499498166931E-01
   2.656699978482021E-03  3.300824789167415E-03  1.995372110704393E-03
2452614.500000000 = A.D. 2002-Dec-06 00:00:00.0000 TDB 
   1.697007637178974E+01 -1.061577642786241E+01 -2.612048959162437E-01
   6.388333177104882E-04  3.243834182410023E-03 -1.572237191538855E-03
2452619.500000000 = A.D. 2002-Dec-11 00:00:00.0000 TDB 
   1.697732911085424E+01 -1.059870228247583E+01 -2.566634588027614E-01
   3.987066622061102E-03  2.835221726119912E-03  7.434362085477501E-04
2452624.500000000 = A.D. 2002-Dec-16 00:00:00.0000 TDB 
   1.698819609971151E+01 -1.058384674721023E+01 -2.623047523685181E-01
   6.430115667294441E-06  3.631879079601018E-03  1.825693445840924E-04
2452629.500000000 = A.D. 2002-Dec-21 00:00:00.0000 TDB 
   1.700038053141894E+01 -1.056774349378944E+01 -2.570545988781443E-01
   3.755072295011866E-03  2.626691339406415E-03 -1.120674255395304E-03
2452634.500000000 = A.D. 2002-Dec-26 00:00:00.0000 TDB 
   1.700653976356382E+01 -1.055161197920317E+01 -2.610629844354995E-01
   1.038865859235173E-03  3.631174790674569E-03  1.773017428110713E-03
2452639.500000000 = A.D. 2002-Dec-31 00:00:00.0000 TDB 
   1.702208607885935E+01 -1.053674181962391E+01 -2.594222489501238E-01
   2.141571835370328E-03  2.846462697028857E-03 -2.096095209972687E-03
2452644.500000000 = A.D. 2003-Jan-05 00:00:00.0000 TDB 
   1.702684062715709E+01 -1.051961260670920E+01 -2.586157846748703E-01
   2.880163129227421E-03  3.248180740338635E-03  1.907450718949102E-03
2452649.500000000 = A.D. 2003-Jan-10 00:00:00.0000 TDB 
   1.704142236146473E+01 -1.050522161303007E+01 -2.619803075526559E-01
   4.358498407939442E-04  3.323865705635745E-03 -1.382404036165353E-03
2452654.500000000 = A.D. 2003-Jan-15 00:00:00.0000 TDB 
   1.704918009521538E+01 -1.048816225360748E+01 -2.570664596475365E-01
   4.035790103552846E-03  2.797913926252097E-03  4.918857534265240E-04
2452659.500000000 = A.D. 2003-Jan-20 00:00:00.0000 TDB 
   1.705922798094234E+01 -1.047309039580118E+01 -2.627593993549536E-01
   3.488962369566555E-05  3.671633593444991E-03  4.478547457715803E-04
2452664.500000000 = A.D. 2003-Jan-25 00:00:00.0000 TDB 
   1.707194628423215E+01 -1.045709863232471E+01 -2.577780990245930E-01
   3.578309171123584E-03  2.644198991255421E-03 -1.334261386339882E-03
2452669.500000000 = A.D. 2003-Jan-30 00:00:00.0000 TDB 
   1.707755481851612E+01 -1.044072670821656E+01 -2.612455870701726E-01
   1.255218717776870E-03  3.609242844092738E-03  1.893337037667846E-03
2452674.500000000 = A.D. 2003-Feb-04 00:00:00.0000 TDB 
   1.709314389660551E+01 -1.042592067132365E+01 -2.603024597150588E-01
   1.855306955718021E-03  2.917196123877515E-03 -2.101712205040486E-03
2452679.500000000 = A.D. 2003-Feb-09 00:00:00.0000 TDB 
   1.709796292231336E+01 -1.040866400811560E+01 -2.587957979718656E-01
   3.087592958793960E-03  3.194832634865603E-03  1.790634223592012E-03
2452684.500000000 = A.D. 2003-Feb-14 00:00:00.0000 TDB 
   1.711196699959948E+01 -1.039418078173916E+01 -2.627133096280452E-01
   2.612655592919664E-04  3.401034485961557E-03 -1.167402837202215E-03
2452689.500000000 = A.D. 2003-Feb-19 00:00:00.0000 TDB 
   1.712026638831253E+01 -1.037715640721202E+01 -2.575075244750739E-01
   4.055716008701938E-03  2.766097315555975E-03  2.356037093203160E-04
2452694.500000000 = A.D. 2003-Feb-24 00:00:00.0000 TDB 
   1.712950518815794E+01 -1.036185822237875E+01 -2.631593796167516E-01
   9.722504040684321E-05  3.702429686954800E-03  7.035108472236172E-04
2452699.500000000 = A.D. 2003-Mar-01 00:00:00.0000 TDB 
   1.714271978383022E+01 -1.034598258765207E+01 -2.585326980616428E-01
   3.372182514731971E-03  2.670370246566323E-03 -1.530887164432497E-03
2452704.500000000 = A.D. 2003-Mar-06 00:00:00.0000 TDB 
   1.714784506478600E+01 -1.032937782340050E+01 -2.614018645069661E-01
   1.480798537767458E-03  3.580836339189218E-03  1.983218573572491E-03
2452709.500000000 = A.D. 2003-Mar-11 00:00:00.0000 TDB 
   1.716338593769044E+01 -1.031461872701443E+01 -2.611703515403114E-01
   1.572215777757636E-03  2.992400196177017E-03 -2.069431677173956E-03
2452714.500000000 = A.D. 2003-Mar-16 00:00:00.0000 TDB 
   1.716835285566805E+01 -1.029725761497046E+01 -2.589907192247873E-01
   3.278270531959815E-03  3.141514897178756E-03  1.649069258261868E-03
2452719.500000000 = A.D. 2003-Mar-21 00:00:00.0000 TDB 
   1.718171895291517E+01 -1.028266002446084E+01 -2.633921739529466E-01
   1.166188834664820E-04  3.473947566159301E-03 -9.346655235107031E-04
2452724.500000000 = A.D. 2003-Mar-26 00:00:00.0000 TDB 
   1.719059289087160E+01 -1.026569063647368E+01 -2.579794667900807E-01
   4.041712836350891E-03  2.740241885530687E-03 -3.013387612647115E-05
2452729.500000000 = A.D. 2003-Mar-31 00:00:00.0000 TDB 
   1.719903030577724E+01 -1.025015629392384E+01 -2.635022556238163E-01
   1.879172695122799E-04  3.724975761854017E-03  9.459887110291172E-04
2452734.500000000 = A.D. 2003-Apr-05 00:00:00.0000 TDB 
   1.721268590589960E+01 -1.023439590761948E+01 -2.593044754996732E-01
   3.142310900298328E-03  2.705580633211988E-03 -1.699138981331082E-03
2452739.500000000 = A.D. 2003-Apr-10 00:00:00.0000 TDB 
   1.721740769630582E+01 -1.021757077452706E+01 -2.615333621558328E-01
   1.712325046909807E-03  3.546856248999333E-03  2.043926840007259E-03
2452744.500000000 = A.D. 2003-Apr-15 00:00:00.0000 TDB 
   1.723280773800184E+01 -1.020283892626284E+01 -2.620121795958624E-01
   1.297550476542453E-03  3.070202926760434E-03 -2.004250795077395E-03
2452749.500000000 = A.D. 2003-Apr-20 00:00:00.0000 TDB 
   1.723800565618459E+01 -1.018539715155967E+01 -2.591931326729729E-01
   3.450384456713370E-03  3.087745646958715E-03  1.476438107043590E-03
2452754.500000000 = A.D. 2003-Apr-25 00:00:00.0000 TDB 
   1.725067693420213E+01 -1.017066433227020E+01 -2.640128447359281E-01
   1.292640899870211E-06  3.542019609937721E-03 -6.893867037519995E-04
2452759.500000000 = A.D. 2003-Apr-30 00:00:00.0000 TDB 
   1.726013839606069E+01 -1.015376615910288E+01 -2.584824644770072E-01
   3.990914133141228E-03  2.722650780604740E-03 -2.933668789345734E-04
2452764.500000000 = A.D. 2003-May-05 00:00:00.0000 TDB 
   1.726780103879620E+01 -1.013799002614948E+01 -2.637886533840196E-01
   3.045205510712340E-04  3.739632892235701E-03  1.174017189188494E-03
2452769.500000000 = A.D. 2003-May-10 00:00:00.0000 TDB 
   1.728183269062848E+01 -1.012234117312981E+01 -2.600888463672943E-01
   2.894819871433774E-03  2.748277775734955E-03 -1.840458471813144E-03
2452774.500000000 = A.D. 2003-May-15 00:00:00.0000 TDB 
   1.728623354364373E+01 -1.010530905255409E+01 -2.616377606742280E-01
   1.952909028273521E-03  3.505798575706910E-03  2.069620906360897E-03
2452779.500000000 = A.D. 2003-May-20 00:00:00.0000 TDB 
   1.730140444784239E+01 -1.009058575711924E+01 -2.628259268153905E-01
   1.033313549999957E-03  3.149794566278590E-03 -1.908887455913858E-03
2452784.500000000 = A.D. 2003-May-25 00:00:00.0000 TDB 
   1.730690623960511E+01 -1.007308696539041E+01 -2.594157716243755E-01
   3.594378370368078E-03  3.036452045645306E-03  1.278677128392664E-03
2452789.500000000 = A.D. 2003-May-30 00:00:00.0000 TDB 
   1.731883700661496E+01 -1.005819876619854E+01 -2.645759999682546E-01
  -8.515730019633549E-05  3.605161842656413E-03 -4.328431572063949E-04
2452794.500000000 = A.D. 2003-Jun-04 00:00:00.0000 TDB 
   1.732889303575649E+01 -1.004138729105780E+01 -2.590211275515767E-01
   3.909113644706394E-03  2.712303887454920E-03 -5.523419185046308E-04
2452799.500000000 = A.D. 2003-Jun-09 00:00:00.0000 TDB 
   1.733581051638227E+01 -1.002536443380334E+01 -2.640232674435153E-01
   4.532384133946133E-04  3.744598493786391E-03  1.384471590756254E-03
